NORAD_CAT_ID,OBJECT_NAME,OBJECT_TYPE,EPOCH,MEAN_MOTION,ECCENTRICITY,INCLINATION,RA_OF_ASC_NODE,ARG_OF_PERICENTER,MEAN_ANOMALY,BSTAR,MEAN_MOTION_DOT,MEAN_MOTION_DDOT,TLE_LINE0,TLE_LINE1,TLE_LINE2,SEMIMAJOR_AXIS,PERIOD,APOGEE,PERIGEE,DECAYED
53010.0,STARLINK-4263,PAYLOAD,2024-02-17 19:01:49,15.08836962,0.0001293,53.2159,225.3859,82.545,277.5689,-1.3022e-05,-4.95e-06,0.0,0 STARLINK-4263,1 53010U 22076AA  24048.79293529 -.00000495  00000-0 -13022-4 0  9992,2 53010  53.2159 225.3859 0001293  82.5450 277.5689 15.08836962 89952,6917.89,95.438,540.649,538.86,0.0
53010.0,STARLINK-4263,PAYLOAD,2024-02-18 10:55:40,15.08840889,0.0001347,53.2166,222.4122,86.1771,273.9375,3.0994e-05,2.05e-06,0.0,0 STARLINK-4263,1 53010U 22076AA  24049.45533448  .00000205  00000-0  30994-4 0  9997,2 53010  53.2166 222.4122 0001347  86.1771 273.9375 15.08840889 89581,6917.878,95.437,540.675,538.811,0.0
53010.0,STARLINK-4263,PAYLOAD,2024-02-18 18:52:36,15.08847351,0.0001402,53.2158,220.9252,98.2414,261.8737,9.2938e-05,1.192e-05,0.0,0 STARLINK-4263,1 53010U 22076AA  24049.78653125  .00001192  00000-0  92938-4 0  9990,2 53010  53.2158 220.9252 0001402  98.2414 261.8737 15.08847351 90108,6917.858,95.437,540.693,538.753,0.0
53010.0,STARLINK-4263,PAYLOAD,2024-02-18 20:27:59,15.08850549,0.0001494,53.2159,220.6279,105.5697,254.546,0.00013098,1.798e-05,0.0,0 STARLINK-4263,1 53010U 22076AA  24049.85276948  .00001798  00000-0  13098-3 0  9993,2 53010  53.2159 220.6279 0001494 105.5697 254.5460 15.08850549 89643,6917.848,95.437,540.747,538.68,0.0
53010.0,STARLINK-4263,PAYLOAD,2024-02-19 10:46:28,15.08837393,0.0001364,53.2159,217.9508,114.56,245.5534,8.4239e-05,1.053e-05,0.0,0 STARLINK-4263,1 53010U 22076AA  24050.44893548  .00001053  00000-0  84239-4 0  9991,2 53010  53.2159 217.9508 0001364 114.5600 245.5534 15.08837393 90205,6917.888,95.438,540.697,538.81,0.0
53010.0,STARLINK-4263,PAYLOAD,2024-02-19 18:43:23,15.08839417,0.0001367,53.2161,216.4646,89.5283,270.5866,0.0001068,1.412e-05,0.0,0 STARLINK-4263,1 53010U 22076AA  24050.78013775  .00001412  00000-0  10680-3 0  9991,2 53010  53.2161 216.4646 0001367  89.5283 270.5866 15.08839417 89782,6917.882,95.438,540.693,538.801,0.0
53010.0,STARLINK-4263,PAYLOAD,2024-02-20 10:37:15,15.08839656,0.0001336,53.2157,213.4909,84.2326,275.8819,9.2988e-05,1.192e-05,0.0,0 STARLINK-4263,1 53010U 22076AA  24051.44253919  .00001192  00000-0  92988-4 0  9998,2 53010  53.2157 213.4909 0001336  84.2326 275.8819 15.08839656 89884,6917.881,95.438,540.671,538.822,0.0
53010.0,STARLINK-4263,PAYLOAD,2024-02-20 16:58:47,15.08844758,0.0001338,53.2156,212.3014,84.128,275.9865,0.00016684,2.369e-05,0.0,0 STARLINK-4263,1 53010U 22076AA  24051.70749709  .00002369  00000-0  16684-3 0  9999,2 53010  53.2156 212.3014 0001338  84.1280 275.9865 15.08844758 90397,6917.866,95.437,540.656,538.805,0.0
53010.0,STARLINK-4263,PAYLOAD,2024-02-21 15:14:12,15.08836838,0.0001335,53.2156,208.1384,84.3709,275.7435,5.921e-05,6.54e-06,0.0,0 STARLINK-4263,1 53010U 22076AA  24052.63486146  .00000654  00000-0  59210-4 0  9993,2 53010  53.2156 208.1384 0001335  84.3709 275.7435 15.08836838 90060,6917.89,95.438,540.679,538.832,0.0
53010.0,STARLINK-4263,PAYLOAD,2024-02-21 16:49:35,15.08837134,0.0001329,53.2157,207.8408,85.3724,274.742,5.5776e-05,6e-06,0.0,0 STARLINK-4263,1 53010U 22076AA  24052.70110117  .00000600  00000-0  55776-4 0  9997,2 53010  53.2157 207.8408 0001329  85.3724 274.7420 15.08837134 90541,6917.889,95.438,540.674,538.835,0.0
53010.0,STARLINK-4263,PAYLOAD,2024-02-22 13:29:35,15.08841601,0.0001405,53.2163,203.9749,87.9301,272.1852,8.0519e-05,9.94e-06,0.0,0 STARLINK-4263,1 53010U 22076AA  24053.56221971  .00000994  00000-0  80519-4 0  9992,2 53010  53.2163 203.9749 0001405  87.9301 272.1852 15.08841601 90205,6917.875,95.437,540.712,538.769,0.0
53010.0,STARLINK-4263,PAYLOAD,2024-02-22 16:40:21,15.08844716,0.000138,53.2173,203.379,92.7612,267.3538,8.9987e-05,1.145e-05,0.0,0 STARLINK-4263,1 53010U 22076AA  24053.69469644  .00001145  00000-0  89987-4 0  9994,2 53010  53.2173 203.3790 0001380  92.7612 267.3538 15.08844716 90226,6917.866,95.437,540.686,538.776,0.0
53010.0,STARLINK-4263,PAYLOAD,2024-02-23 13:20:22,15.08840028,0.0001377,53.2177,199.5135,93.12,266.995,0.0001066,1.409e-05,0.0,0 STARLINK-4263,1 53010U 22076AA  24054.55581942  .00001409  00000-0  10660-3 0  9990,2 53010  53.2177 199.5135 0001377  93.1200 266.9950 15.08840028 90352,6917.88,95.438,540.698,538.793,0.0
53010.0,STARLINK-4263,PAYLOAD,2024-02-23 19:41:54,15.08847659,0.0001374,53.2177,198.3246,92.6118,267.5032,0.0001572,2.215e-05,0.0,0 STARLINK-4263,1 53010U 22076AA  24054.82077332  .00002215  00000-0  15720-3 0  9991,2 53010  53.2177 198.3246 0001374  92.6118 267.5032 15.08847659 90862,6917.857,95.437,540.672,538.771,0.0
53010.0,STARLINK-4263,PAYLOAD,2024-02-24 10:00:23,15.08839184,0.0001582,53.2176,195.6479,92.2238,267.8936,3.6353e-05,2.91e-06,0.0,0 STARLINK-4263,1 53010U 22076AA  24055.41694303  .00000291  00000-0  36353-4 0  9998,2 53010  53.2176 195.6479 0001582  92.2238 267.8936 15.08839184 90959,6917.883,95.438,540.842,538.653,0.0
53010.0,STARLINK-4263,PAYLOAD,2024-02-24 13:11:10,15.08836832,0.000144,53.2165,195.0528,95.3675,264.7481,3.8252e-05,3.21e-06,0.0,0 STARLINK-4263,1 53010U 22076AA  24055.54942418  .00000321  00000-0  38252-4 0  9999,2 53010  53.2165 195.0528 0001440  95.3675 264.7481 15.08836832 90507,6917.89,95.438,540.751,538.759,0.0
53010.0,STARLINK-4263,PAYLOAD,2024-02-24 16:21:56,15.08842999,0.000146,53.2167,194.4585,91.3146,268.8013,4.1376e-05,3.71e-06,0.0,0 STARLINK-4263,1 53010U 22076AA  24055.68190013  .00000371  00000-0  41376-4 0  9996,2 53010  53.2167 194.4585 0001460  91.3146 268.8013 15.08842999 90525,6917.871,95.437,540.746,538.726,0.0
53010.0,STARLINK-4263,PAYLOAD,2024-02-25 13:01:57,15.08843494,0.0001474,53.2169,190.5931,98.1668,261.9492,3.5616e-05,2.79e-06,0.0,0 STARLINK-4263,1 53010U 22076AA  24056.54302098  .00000279  00000-0  35616-4 0  9997,2 53010  53.2169 190.5931 0001474  98.1668 261.9492 15.08843494 91121,6917.87,95.437,540.754,538.715,0.0
53010.0,STARLINK-4263,PAYLOAD,2024-02-25 14:37:20,15.08844255,0.0001534,53.2168,190.2958,102.424,257.6923,5.4249e-05,5.76e-06,0.0,0 STARLINK-4263,1 53010U 22076AA  24056.60925986  .00000576  00000-0  54249-4 0  9994,2 53010  53.2168 190.2958 0001534 102.4240 257.6923 15.08844255 90663,6917.867,95.437,540.794,538.671,0.0
53010.0,STARLINK-4263,PAYLOAD,2024-02-25 17:48:05,15.08855494,0.0001504,53.2184,189.7037,94.9126,265.2037,0.00014629,2.042e-05,0.0,0 STARLINK-4263,1 53010U 22076AA  24056.74173146  .00002042  00000-0  14629-3 0  9999,2 53010  53.2184 189.7037 0001504  94.9126 265.2037 15.08855494 91150,6917.833,95.437,540.738,538.658,0.0
53010.0,STARLINK-4263,PAYLOAD,2024-02-26 01:45:01,15.08840812,0.0001786,53.2173,188.2148,91.1473,268.9724,-8.8911e-06,-4.3e-06,0.0,0 STARLINK-4263,1 53010U 22076AA  24057.07293917 -.00000430  00000-0 -88911-5 0  9993,2 53010  53.2173 188.2148 0001786  91.1473 268.9724 15.08840812 91208,6917.878,95.438,540.978,538.507,0.0
53010.0,STARLINK-4263,PAYLOAD,2024-02-26 14:28:07,15.08838999,0.0001876,53.2183,185.8364,95.9799,264.1407,9.3623e-05,1.202e-05,0.0,0 STARLINK-4263,1 53010U 22076AA  24057.60286182  .00001202  00000-0  93623-4 0  9999,2 53010  53.2183 185.8364 0001876  95.9799 264.1407 15.08838999 90810,6917.883,95.438,541.046,538.451,0.0
53010.0,STARLINK-4263,PAYLOAD,2024-02-26 17:38:53,15.08843878,0.0001627,53.2166,185.2399,93.1208,266.9971,0.00015626,2.2e-05,0.0,0 STARLINK-4263,1 53010U 22076AA  24057.73533904  .00002200  00000-0  15626-3 0  9995,2 53010  53.2166 185.2399 0001627  93.1208 266.9971 15.08843878 90832,6917.869,95.437,540.859,538.608,0.0
53010.0,STARLINK-4263,PAYLOAD,2024-02-27 07:57:22,15.08835258,0.0001376,53.2169,182.565,96.5374,263.5775,-0.00014671,-2.622e-05,0.0,0 STARLINK-4263,1 53010U 22076AA  24058.33150624 -.00002622  00000-0 -14671-3 0  9995,2 53010  53.2169 182.5650 0001376  96.5374 263.5775 15.08835258 91397,6917.895,95.438,540.712,538.808,0.0
53010.0,STARLINK-4263,PAYLOAD,2024-02-27 14:18:54,15.08835559,0.0001374,53.2169,181.3764,94.1102,266.0047,-0.00010255,-1.919e-05,0.0,0 STARLINK-4263,1 53010U 22076AA  24058.59646700 -.00001919  00000-0 -10255-3 0  9990,2 53010  53.2169 181.3764 0001374  94.1102 266.0047 15.08835559 90967,6917.894,95.438,540.709,538.808,0.0
53010.0,STARLINK-4263,PAYLOAD,2024-02-27 17:29:40,15.08842033,0.0001562,53.2176,180.7804,93.7551,266.362,1.9594e-05,2.4e-07,0.0,0 STARLINK-4263,1 53010U 22076AA  24058.72894458  .00000024  00000-0  19594-4 0  9990,2 53010  53.2176 180.7804 0001562  93.7551 266.3620 15.08842033 90982,6917.874,95.437,540.82,538.659,0.0
53010.0,STARLINK-4263,PAYLOAD,2024-02-28 14:09:42,15.08835811,0.0001386,53.218,176.9132,92.6651,267.45,0.00011946,1.614e-05,0.0,0 STARLINK-4263,1 53010U 22076AA  24059.59007097  .00001614  00000-0  11946-3 0  9999,2 53010  53.2180 176.9132 0001386  92.6651 267.4500 15.08835811 91583,6917.893,95.438,540.717,538.799,0.0
53010.0,STARLINK-4263,PAYLOAD,2024-02-29 14:00:28,15.08849216,0.0001395,53.2154,172.4535,92.3139,267.8013,0.00024372,3.594e-05,0.0,0 STARLINK-4263,1 53010U 22076AA  24060.58366556  .00003594  00000-0  24372-3 0  9994,2 53010  53.2154 172.4535 0001395  92.3139 267.8013 15.08849216 91734,6917.852,95.437,540.682,538.752,0.0
53010.0,STARLINK-4263,PAYLOAD,2024-03-01 13:51:15,15.08844559,0.0001406,53.2155,167.9918,92.4615,267.6538,0.00017571,2.51e-05,0.0,0 STARLINK-4263,1 53010U 22076AA  24061.57726772  .00002510  00000-0  17571-3 0  9994,2 53010  53.2155 167.9918 0001406  92.4615 267.6538 15.08844559 91412,6917.866,95.437,540.704,538.759,0.0
53010.0,STARLINK-4263,PAYLOAD,2024-03-02 12:06:39,15.08844613,0.0001346,53.2176,163.8347,95.046,265.0685,7.0006e-05,8.27e-06,0.0,0 STARLINK-4263,1 53010U 22076AA  24062.50462525  .00000827  00000-0  70006-4 0  9993,2 53010  53.2176 163.8347 0001346  95.0460 265.0685 15.08844613 91557,6917.866,95.437,540.662,538.8,0.0
